{
    "links": {
        "self": "http://www.neowsapp.com/rest/v1/neo/3781454?api_key=iIulBulltgU6a56xZRHN4H3l9WmuAYTsLGpBGhQ2"
    },
    "id": "3781454",
    "neo_reference_id": "3781454",
    "name": "(2017 RS15)",
    "designation": "2017 RS15",
    "nasa_jpl_url": "http://ssd.jpl.nasa.gov/sbdb.cgi?sstr=3781454",
    "absolute_magnitude_h": 22.6,
    "estimated_diameter": {
        "kilometers": {
            "estimated_diameter_min": 0.0802703167,
            "estimated_diameter_max": 0.1794898848
        },
        "meters": {
            "estimated_diameter_min": 80.2703167283,
            "estimated_diameter_max": 179.4898847799
        },
        "miles": {
            "estimated_diameter_min": 0.049877647,
            "estimated_diameter_max": 0.1115298092
        },
        "feet": {
            "estimated_diameter_min": 263.3540659348,
            "estimated_diameter_max": 588.8775935812
        }
    },
    "is_potentially_hazardous_asteroid": false,
    "close_approach_data": [
        {
            "close_approach_date": "2017-09-20",
            "close_approach_date_full": "2017-Sep-20 05:17",
            "epoch_date_close_approach": 1505884620000,
            "relative_velocity": {
                "kilometers_per_second": "11.3554958246",
                "kilometers_per_hour": "40879.7849686428",
                "miles_per_hour": "25401.1086100992"
            },
            "miss_distance": {
                "astronomical": "0.1515781216",
                "lunar": "58.9638893024",
                "kilometers": "22675764.129960992",
                "miles": "14090066.4652940096"
            },
            "orbiting_body": "Earth"
        }
    ],
    "orbital_data": {
        "orbit_id": "3",
        "orbit_determination_date": "2018-02-10 07:09:07",
        "first_observation_date": "2017-09-15",
        "last_observation_date": "2017-09-21",
        "data_arc_in_days": 6,
        "observations_used": 14,
        "orbit_uncertainty": "9",
        "minimum_orbit_intersection": ".0720674",
        "jupiter_tisserand_invariant": "3.059",
        "epoch_osculation": "2458012.5",
        "eccentricity": ".6447295810156817",
        "semi_major_axis": "2.617942668193698",
        "inclination": "8.777340351483867",
        "ascending_node_longitude": "278.9440229385347",
        "orbital_period": "1547.172095857484",
        "perihelion_distance": ".9300775886060995",
        "perihelion_argument": "116.2738771353598",
        "aphelion_distance": "4.305807747781297",
        "perihelion_time": "2458045.061291810579",
        "mean_anomaly": "352.4235545074824",
        "mean_motion": ".2326825832523035",
        "equinox": "J2000",
        "orbit_class": {
            "orbit_class_type": "APO",
            "orbit_class_description": "Near-Earth asteroid orbits which cross the Earth’s orbit similar to that of 1862 Apollo",
            "orbit_class_range": "a (semi-major axis) > 1.0 AU; q (perihelion) < 1.017 AU"
        }
    },
    "is_sentry_object": false
}